ADDRESS,CITY,ZIPCODE,LONGITUDE,LATITUDE,MODES_SERV,MODE_BUS,MODE_RAIL,MODE_FERRY
Post St at Kearny St,San Francisco,94104,-122.403452,37.788975,3,"Bus (transit, intercity, supplemental, or code-share) service is available","Rail (intercity, heavy, light, or commuter) service is available",No ferry (intercity or transit) service available
Montgomery St BART Station (Market St at 2nd St),San Francisco,94105,-122.400811,37.7896254,3,"Bus (transit, intercity, supplemental, or code-share) service is available","Rail (intercity, heavy, light, or commuter) service is available",No ferry (intercity or transit) service available
San Francisco Ferry Building (Harry Bridges Plaza),San Francisco,94111,-122.394203,37.795392,4,"Bus (transit, intercity, supplemental, or code-share) service is available","Rail (intercity, heavy, light, or commuter) service is available",Ferry (intercity or transit) service is available
San Francisco Caltrain (Townsend St at 4th St),San Francisco,94107,-122.395282,37.776598,3,"Bus (transit, intercity, supplemental, or code-share) service is available","Rail (intercity, heavy, light, or commuter) service is available",No ferry (intercity or transit) service available
Embarcadero BART Station (Beale St at Market St),San Francisco,94105,-122.397086,37.792251,3,"Bus (transit, intercity, supplemental, or code-share) service is available","Rail (intercity, heavy, light, or commuter) service is available",No ferry (intercity or transit) service available
Balboa Park BART Station,San Francisco,94112,-122.4477232,37.720555,3,"Bus (transit, intercity, supplemental, or code-share) service is available","Rail (intercity, heavy, light, or commuter) service is available",No ferry (intercity or transit) service available
Glen Park BART Station,San Francisco,94131,-122.4341404,37.732813,3,"Bus (transit, intercity, supplemental, or code-share) service is available","Rail (intercity, heavy, light, or commuter) service is available",No ferry (intercity or transit) service available
San Jose Diridon Station,San Jose,95110,-121.901782,37.329732,3,"Bus (transit, intercity, supplemental, or code-share) service is available","Rail (intercity, heavy, light, or commuter) service is available",No ferry (intercity or transit) service available
Spear St at Folsom St,San Francisco,94105,-122.3904285,37.7896767,2,"No bus (transit, intercity, supplemental, or code-share) service available","Rail (intercity, heavy, light, or commuter) service is available",No ferry (intercity or transit) service available
Mechanics Monument Plaza (Market St at Bush St),San Francisco,94111,-122.399051,37.7913,3,"Bus (transit, intercity, supplemental, or code-share) service is available","Rail (intercity, heavy, light, or commuter) service is available",No ferry (intercity or transit) service available
23rd St at Tennessee St,San Francisco,94107,-122.388795,37.755367,3,"Bus (transit, intercity, supplemental, or code-share) service is available","Rail (intercity, heavy, light, or commuter) service is available",No ferry (intercity or transit) service available
Illinois St at 20th St,San Francisco,94107,-122.3875397,37.760458,3,"Bus (transit, intercity, supplemental, or code-share) service is available","Rail (intercity, heavy, light, or commuter) service is available",No ferry (intercity or transit) service available
24th St at Bartlett St,Berkeley,94110,-122.4197236,37.752105,3,"Bus (transit, intercity, supplemental, or code-share) service is available","Rail (intercity, heavy, light, or commuter) service is available",No ferry (intercity or transit) service available
Carl St at Cole St,San Francisco,94117,-122.4492574,37.76591,3,"Bus (transit, intercity, supplemental, or code-share) service is available","Rail (intercity, heavy, light, or commuter) service is available",No ferry (intercity or transit) service available
Newhall St at 3rd St,San Francisco,94124,-122.3896178,37.738572,3,"Bus (transit, intercity, supplemental, or code-share) service is available","Rail (intercity, heavy, light, or commuter) service is available",No ferry (intercity or transit) service available
McKinnon Ave at 3rd St,San Francisco,94124,-122.3899698,37.736296,3,"Bus (transit, intercity, supplemental, or code-share) service is available","Rail (intercity, heavy, light, or commuter) service is available",No ferry (intercity or transit) service available
Lane St at Revere Ave,San Francisco,94124,-122.3900557,37.731727,3,"Bus (transit, intercity, supplemental, or code-share) service is available","Rail (intercity, heavy, light, or commuter) service is available",No ferry (intercity or transit) service available
Quesada Ave at 3rd St,San Francisco,94124,-122.390973,37.733093,3,"Bus (transit, intercity, supplemental, or code-share) service is available","Rail (intercity, heavy, light, or commuter) service is available",No ferry (intercity or transit) service available
Williams Ave at 3rd St,San Jose,94124,-122.3928961,37.729279,3,"Bus (transit, intercity, supplemental, or code-share) service is available","Rail (intercity, heavy, light, or commuter) service is available",No ferry (intercity or transit) service available
Carroll St at 3rd St,San Francisco,94124,-122.39402,37.725375,3,"Bus (transit, intercity, supplemental, or code-share) service is available","Rail (intercity, heavy, light, or commuter) service is available",No ferry (intercity or transit) service available
Randall St at Chenery St,San Francisco,94131,-122.4255225,37.739813,3,"Bus (transit, intercity, supplemental, or code-share) service is available","Rail (intercity, heavy, light, or commuter) service is available",No ferry (intercity or transit) service available
China Basin St at 3rd St,San Francisco,94158,-122.3899698,37.772,3,"Bus (transit, intercity, supplemental, or code-share) service is available","Rail (intercity, heavy, light, or commuter) service is available",No ferry (intercity or transit) service available
Saint James Park,San Jose,95112,-121.889937,37.339301,3,"Bus (transit, intercity, supplemental, or code-share) service is available","Rail (intercity, heavy, light, or commuter) service is available",No ferry (intercity or transit) service available
Gish Rd at 1st St,San Jose,95112,-121.9093153,37.361867,2,"No bus (transit, intercity, supplemental, or code-share) service available","Rail (intercity, heavy, light, or commuter) service is available",No ferry (intercity or transit) service available
San Carlos St at Market St,San Jose,95113,-121.888979,37.330698,3,"Bus (transit, intercity, supplemental, or code-share) service is available","Rail (intercity, heavy, light, or commuter) service is available",No ferry (intercity or transit) service available
Paseo De San Antonio at 2nd St,San Jose,95113,-121.886943,37.333798,3,"Bus (transit, intercity, supplemental, or code-share) service is available","Rail (intercity, heavy, light, or commuter) service is available",No ferry (intercity or transit) service available
Parkmoor Ave at Race St,San Jose,95126,-121.9100046,37.316736,3,"Bus (transit, intercity, supplemental, or code-share) service is available","Rail (intercity, heavy, light, or commuter) service is available",No ferry (intercity or transit) service available
Octavia Blvd at Page St,San Francisco,94102,-122.4238086,37.774018,1,"No bus (transit, intercity, supplemental, or code-share) service available","No rail (intercity, heavy, light, or commuter) service available",No ferry (intercity or transit) service available
Kerley Dr at Rosemary St,San Jose,95112,-121.9068342,37.360854,1,"No bus (transit, intercity, supplemental, or code-share) service available","No rail (intercity, heavy, light, or commuter) service available",No ferry (intercity or transit) service available
Union Square (Powell St at Post St),San Francisco,94102,-122.4085307,37.7883,2,"Bus (transit, intercity, supplemental, or code-share) service is available","No rail (intercity, heavy, light, or commuter) service available",No ferry (intercity or transit) service available
Jones St at Post St,San Francisco,94102,-122.4132782,37.787327,2,"Bus (transit, intercity, supplemental, or code-share) service is available","No rail (intercity, heavy, light, or commuter) service available",No ferry (intercity or transit) service available
Golden Gate Ave at Franklin St,San Francisco,94102,-122.4219337,37.780787,2,"Bus (transit, intercity, supplemental, or code-share) service is available","No rail (intercity, heavy, light, or commuter) service available",No ferry (intercity or transit) service available
Market St at 10th St,San Francisco,94103,-122.417385,37.776619,2,"Bus (transit, intercity, supplemental, or code-share) service is available","No rail (intercity, heavy, light, or commuter) service available",No ferry (intercity or transit) service available
Yerba Buena Center for the Arts (Howard St at 3rd St),San Jose,94103,-122.4008757,37.784872,2,"Bus (transit, intercity, supplemental, or code-share) service is available","No rail (intercity, heavy, light, or commuter) service available",No ferry (intercity or transit) service available
Natoma St at New Montgomery St,San Jose,94105,-122.399607,37.786553,2,"Bus (transit, intercity, supplemental, or code-share) service is available","No rail (intercity, heavy, light, or commuter) service available",No ferry (intercity or transit) service available
Howard St at Beale St,San Francisco,94105,-122.394643,37.789756,2,"Bus (transit, intercity, supplemental, or code-share) service is available","No rail (intercity, heavy, light, or commuter) service available",No ferry (intercity or transit) service available
Howard St at 2nd St,San Francisco,94105,-122.398113,37.786928,2,"Bus (transit, intercity, supplemental, or code-share) service is available","No rail (intercity, heavy, light, or commuter) service available",No ferry (intercity or transit) service available
The Embarcadero at Bryant St,San Francisco,94105,-122.3880979,37.787168,1,"No bus (transit, intercity, supplemental, or code-share) service available","No rail (intercity, heavy, light, or commuter) service available",No ferry (intercity or transit) service available
Salesforce Transit Center (Natoma St at 2nd St),San Francisco,94105,-122.3982847,37.787492,2,"Bus (transit, intercity, supplemental, or code-share) service is available","No rail (intercity, heavy, light, or commuter) service available",No ferry (intercity or transit) service available
Indiana St at Cesar Chavez St,San Jose,94107,-122.3904473,37.750434,1,"No bus (transit, intercity, supplemental, or code-share) service available","No rail (intercity, heavy, light, or commuter) service available",No ferry (intercity or transit) service available
2nd St at Folsom St,San Francisco,94107,-122.396906,37.785377,2,"Bus (transit, intercity, supplemental, or code-share) service is available","No rail (intercity, heavy, light, or commuter) service available",No ferry (intercity or transit) service available
5th St at Folsom,San Jose,94107,-122.4030709,37.780146,2,"Bus (transit, intercity, supplemental, or code-share) service is available","No rail (intercity, heavy, light, or commuter) service available",No ferry (intercity or transit) service available
Myrtle St at Polk St,San Francisco,94109,-122.4196216,37.785434,2,"Bus (transit, intercity, supplemental, or code-share) service is available","No rail (intercity, heavy, light, or commuter) service available",No ferry (intercity or transit) service available
Hyde St at Post St,San Francisco,94109,-122.4166511,37.787349,2,"Bus (transit, intercity, supplemental, or code-share) service is available","No rail (intercity, heavy, light, or commuter) service available",No ferry (intercity or transit) service available
Jackson St at Polk St,San Francisco,94109,-122.4215676,37.79416,2,"Bus (transit, intercity, supplemental, or code-share) service is available","No rail (intercity, heavy, light, or commuter) service available",No ferry (intercity or transit) service available
Leavenworth St at Broadway,San Jose,94109,-122.4168576,37.796471,2,"Bus (transit, intercity, supplemental, or code-share) service is available","No rail (intercity, heavy, light, or commuter) service available",No ferry (intercity or transit) service available
Fern St at Polk St,San Jose,94109,-122.4203727,37.788197,2,"Bus (transit, intercity, supplemental, or code-share) service is available","No rail (intercity, heavy, light, or commuter) service available",No ferry (intercity or transit) service available
Chestnut St at Van Ness Ave,San Francisco,94109,-122.4245086,37.802288,2,"Bus (transit, intercity, supplemental, or code-share) service is available","No rail (intercity, heavy, light, or commuter) service available",No ferry (intercity or transit) service available
23rd St at San Bruno Ave,San Francisco,94110,-122.4043639,37.754436,2,"Bus (transit, intercity, supplemental, or code-share) service is available","No rail (intercity, heavy, light, or commuter) service available",No ferry (intercity or transit) service available
Guerrero Park,San Francisco,94110,-122.4221402,37.745739,1,"No bus (transit, intercity, supplemental, or code-share) service available","No rail (intercity, heavy, light, or commuter) service available",No ferry (intercity or transit) service available
Potrero del Sol Park (25th St at Utah St),Oakland,94110,-122.4052155,37.751792,2,"Bus (transit, intercity, supplemental, or code-share) service is available","No rail (intercity, heavy, light, or commuter) service available",No ferry (intercity or transit) service available
Judson Ave at Gennessee St,New York,94112,-122.450695,37.728282,2,"Bus (transit, intercity, supplemental, or code-share) service is available","No rail (intercity, heavy, light, or commuter) service available",No ferry (intercity or transit) service available
20th St at Dolores St,San Francisco,94114,-122.4260938,37.758238,1,"No bus (transit, intercity, supplemental, or code-share) service available","No rail (intercity, heavy, light, or commuter) service available",No ferry (intercity or transit) service available
22nd St at Dolores St,San Francisco,94114,-122.4257277,37.755,1,"No bus (transit, intercity, supplemental, or code-share) service available","No rail (intercity, heavy, light, or commuter) service available",No ferry (intercity or transit) service available
Post St at Divisadero St,San Francisco,94115,-122.439478,37.784372,2,"Bus (transit, intercity, supplemental, or code-share) service is available","No rail (intercity, heavy, light, or commuter) service available",No ferry (intercity or transit) service available
Turk St at Fillmore St,San Francisco,94115,-122.4319464,37.78045,2,"Bus (transit, intercity, supplemental, or code-share) service is available","No rail (intercity, heavy, light, or commuter) service available",No ferry (intercity or transit) service available
Alamo Square (Steiner St at Fulton St),San Francisco,94117,-122.4332741,37.777547,1,"No bus (transit, intercity, supplemental, or code-share) service available","No rail (intercity, heavy, light, or commuter) service available",No ferry (intercity or transit) service available
Grove St at Masonic Ave,San Francisco,94117,-122.4465457,37.774836,2,"Bus (transit, intercity, supplemental, or code-share) service is available","No rail (intercity, heavy, light, or commuter) service available",No ferry (intercity or transit) service available
Fell St at Stanyan St,San Francisco,94117,-122.4537045,37.771917,2,"Bus (transit, intercity, supplemental, or code-share) service is available","No rail (intercity, heavy, light, or commuter) service available",No ferry (intercity or transit) service available
Parker Ave at McAllister St,San Francisco,94118,-122.4530929,37.776101,2,"Bus (transit, intercity, supplemental, or code-share) service is available","No rail (intercity, heavy, light, or commuter) service available",No ferry (intercity or transit) service available
Masonic Ave at Turk St,San Jose,94118,-122.4472913,37.779047,2,"Bus (transit, intercity, supplemental, or code-share) service is available","No rail (intercity, heavy, light, or commuter) service available",No ferry (intercity or transit) service available
Bay St at Fillmore St,San Francisco,94123,-122.4362889,37.802636,2,"Bus (transit, intercity, supplemental, or code-share) service is available","No rail (intercity, heavy, light, or commuter) service available",No ferry (intercity or transit) service available
Buchanan St at North Point St,San Francisco,94123,-122.4335369,37.804272,1,"No bus (transit, intercity, supplemental, or code-share) service available","No rail (intercity, heavy, light, or commuter) service available",No ferry (intercity or transit) service available
Greenwich St at Webster St,San Jose,94123,-122.4341217,37.799208,1,"No bus (transit, intercity, supplemental, or code-share) service available","No rail (intercity, heavy, light, or commuter) service available",No ferry (intercity or transit) service available
Williams Ave at Apollo St,San Francisco,94124,-122.3989633,37.730168,2,"Bus (transit, intercity, supplemental, or code-share) service is available","No rail (intercity, heavy, light, or commuter) service available",No ferry (intercity or transit) service available
Mendell St at Fairfax Ave,San Francisco,94124,-122.3856555,37.739853,2,"Bus (transit, intercity, supplemental, or code-share) service is available","No rail (intercity, heavy, light, or commuter) service available",No ferry (intercity or transit) service available
Illinois St at Cesar Chavez St,Emeryville,94124,-122.3865674,37.7502,1,"No bus (transit, intercity, supplemental, or code-share) service available","No rail (intercity, heavy, light, or commuter) service available",No ferry (intercity or transit) service available
Jennings St at Revere Ave,San Francisco,94124,-122.3865366,37.729393,2,"Bus (transit, intercity, supplemental, or code-share) service is available","No rail (intercity, heavy, light, or commuter) service available",No ferry (intercity or transit) service available
Evans Ave at Mendell St,San Francisco,94124,-122.3837364,37.740178,2,"Bus (transit, intercity, supplemental, or code-share) service is available","No rail (intercity, heavy, light, or commuter) service available",No ferry (intercity or transit) service available
Oakdale Ave at Phelps St,San Francisco,94124,-122.3942506,37.736852,2,"Bus (transit, intercity, supplemental, or code-share) service is available","No rail (intercity, heavy, light, or commuter) service available",No ferry (intercity or transit) service available
Gennessee St at Monterey Blvd,San Francisco,94127,-122.4511215,37.731657,2,"Bus (transit, intercity, supplemental, or code-share) service is available","No rail (intercity, heavy, light, or commuter) service available",No ferry (intercity or transit) service available
Lombard St at Columbus Ave,San Francisco,94133,-122.4135786,37.802746,2,"Bus (transit, intercity, supplemental, or code-share) service is available","No rail (intercity, heavy, light, or commuter) service available",No ferry (intercity or transit) service available
Goettingen St at Bacon St,San Jose,94134,-122.4065995,37.726943,2,"Bus (transit, intercity, supplemental, or code-share) service is available","No rail (intercity, heavy, light, or commuter) service available",No ferry (intercity or transit) service available
2100 Powell St,San Jose,94608,-122.2987177,37.839543,2,"Bus (transit, intercity, supplemental, or code-share) service is available","No rail (intercity, heavy, light, or commuter) service available",No ferry (intercity or transit) service available
Madison St at 17th St,San Francisco,94612,-122.2624093,37.804037,1,"No bus (transit, intercity, supplemental, or code-share) service available","No rail (intercity, heavy, light, or commuter) service available",No ferry (intercity or transit) service available
Sonora Ave at 1st St,San Jose,95110,-121.911732,37.36406,1,"No bus (transit, intercity, supplemental, or code-share) service available","No rail (intercity, heavy, light, or commuter) service available",No ferry (intercity or transit) service available
Skyport Dr at Technology Dr,San Francisco,95110,-121.9168147,37.365227,2,"Bus (transit, intercity, supplemental, or code-share) service is available","No rail (intercity, heavy, light, or commuter) service available",No ferry (intercity or transit) service available
Terraine St at Julian St,San Francisco,95110,-121.8973124,37.33905,1,"No bus (transit, intercity, supplemental, or code-share) service available","No rail (intercity, heavy, light, or commuter) service available",No ferry (intercity or transit) service available
Stockton Ave at Lenzen Ave,San Jose,95110,-121.909149,37.336775,1,"No bus (transit, intercity, supplemental, or code-share) service available","No rail (intercity, heavy, light, or commuter) service available",No ferry (intercity or transit) service available
San Pedro St at Hedding St,San Francisco,95110,-121.905733,37.352601,2,"Bus (transit, intercity, supplemental, or code-share) service is available","No rail (intercity, heavy, light, or commuter) service available",No ferry (intercity or transit) service available
3rd St at Keyes St,San Jose,95112,-121.8762785,37.320866,2,"Bus (transit, intercity, supplemental, or code-share) service is available","No rail (intercity, heavy, light, or commuter) service available",No ferry (intercity or transit) service available
4th St at San Carlos St,San Francisco,95112,-121.8838504,37.3328,2,"Bus (transit, intercity, supplemental, or code-share) service is available","No rail (intercity, heavy, light, or commuter) service available",No ferry (intercity or transit) service available
Ryland Park,San Jose,95112,-121.895617,37.342725,1,"No bus (transit, intercity, supplemental, or code-share) service available","No rail (intercity, heavy, light, or commuter) service available",No ferry (intercity or transit) service available
San Jose City Hall,San Jose,95112,-121.886995,37.337391,2,"Bus (transit, intercity, supplemental, or code-share) service is available","No rail (intercity, heavy, light, or commuter) service available",No ferry (intercity or transit) service available
San Salvador St at 9th St,San Jose,95112,-121.877349,37.333955,2,"Bus (transit, intercity, supplemental, or code-share) service is available","No rail (intercity, heavy, light, or commuter) service available",No ferry (intercity or transit) service available
5th St at San Salvador St,San Francisco,95112,-121.8817663,37.332039,1,"No bus (transit, intercity, supplemental, or code-share) service available","No rail (intercity, heavy, light, or commuter) service available",No ferry (intercity or transit) service available
2nd St at Julian St,San Francisco,95112,-121.8928438,37.341132,2,"Bus (transit, intercity, supplemental, or code-share) service is available","No rail (intercity, heavy, light, or commuter) service available",No ferry (intercity or transit) service available
Empire St at 7th St,San Francisco,95112,-121.8908,37.347745,2,"Bus (transit, intercity, supplemental, or code-share) service is available","No rail (intercity, heavy, light, or commuter) service available",No ferry (intercity or transit) service available
Backesto Park (Jackson St at 13th St),San Francisco,95112,-121.8860498,37.352887,2,"Bus (transit, intercity, supplemental, or code-share) service is available","No rail (intercity, heavy, light, or commuter) service available",No ferry (intercity or transit) service available
Taylor St at 9th St,San Jose,95112,-121.8919373,37.353062,2,"Bus (transit, intercity, supplemental, or code-share) service is available","No rail (intercity, heavy, light, or commuter) service available",No ferry (intercity or transit) service available
1st St at Younger Ave,San Francisco,95112,-121.9044364,37.35503,1,"No bus (transit, intercity, supplemental, or code-share) service available","No rail (intercity, heavy, light, or commuter) service available",No ferry (intercity or transit) service available
10th St at Empire St,San Jose,95112,-121.8876189,37.349426,2,"Bus (transit, intercity, supplemental, or code-share) service is available","No rail (intercity, heavy, light, or commuter) service available",No ferry (intercity or transit) service available
Metro Dr at Technology Dr,San Jose,95112,-121.9187942,37.367678,2,"Bus (transit, intercity, supplemental, or code-share) service is available","No rail (intercity, heavy, light, or commuter) service available",No ferry (intercity or transit) service available
Raymond Bernal Jr Memorial Park (8th St at Hedding St),San Jose,95112,-121.8959358,37.356834,2,"Bus (transit, intercity, supplemental, or code-share) service is available","No rail (intercity, heavy, light, or commuter) service available",No ferry (intercity or transit) service available
10th St at Mission St,San Jose,95112,-121.8922511,37.355693,2,"Bus (transit, intercity, supplemental, or code-share) service is available","No rail (intercity, heavy, light, or commuter) service available",No ferry (intercity or transit) service available
17th St at Santa Clara St,San Jose,95112,-121.8743849,37.343985,2,"Bus (transit, intercity, supplemental, or code-share) service is available","No rail (intercity, heavy, light, or commuter) service available",No ferry (intercity or transit) service available
23rd St at Taylor St,San Francisco,95112,-121.8787783,37.360001,2,"Bus (transit, intercity, supplemental, or code-share) service is available","No rail (intercity, heavy, light, or commuter) service available",No ferry (intercity or transit) service available
South San Jose State (7th St at Humboldt St),San Jose,95112,-121.8700987,37.320316,1,"No bus (transit, intercity, supplemental, or code-share) service available","No rail (intercity, heavy, light, or commuter) service available",No ferry (intercity or transit) service available
Market St at Park St,San Jose,95113,-121.8903494,37.332426,1,"No bus (transit, intercity, supplemental, or code-share) service available","No rail (intercity, heavy, light, or commuter) service available",No ferry (intercity or transit) service available
San Pedro Square,San Jose,95113,-121.8940901,37.336802,1,"No bus (transit, intercity, supplemental, or code-share) service available","No rail (intercity, heavy, light, or commuter) service available",No ferry (intercity or transit) service available
Almaden Blvd at San Fernando St,San Jose,95113,-121.8932,37.331415,2,"Bus (transit, intercity, supplemental, or code-share) service is available","No rail (intercity, heavy, light, or commuter) service available",No ferry (intercity or transit) service available
Santa Clara St at Almaden Blvd,San Jose,95113,-121.894902,37.333988,2,"Bus (transit, intercity, supplemental, or code-share) service is available","No rail (intercity, heavy, light, or commuter) service available",No ferry (intercity or transit) service available
1st St at San Carlos Ave,San Jose,95113,-121.8869376,37.331168,2,"Bus (transit, intercity, supplemental, or code-share) service is available","No rail (intercity, heavy, light, or commuter) service available",No ferry (intercity or transit) service available
21st St at Santa Clara St,San Jose,95116,-121.8706781,37.345759,2,"Bus (transit, intercity, supplemental, or code-share) service is available","No rail (intercity, heavy, light, or commuter) service available",No ferry (intercity or transit) service available
Bird Ave at Coe Ave,San Jose,95125,-121.8978328,37.315158,2,"Bus (transit, intercity, supplemental, or code-share) service is available","No rail (intercity, heavy, light, or commuter) service available",No ferry (intercity or transit) service available
Delmas Ave at Virginia St,San Jose,95125,-121.8929994,37.319757,1,"No bus (transit, intercity, supplemental, or code-share) service available","No rail (intercity, heavy, light, or commuter) service available",No ferry (intercity or transit) service available
Bird Ave at Willow St,San Francisco,95125,-121.8963254,37.311284,2,"Bus (transit, intercity, supplemental, or code-share) service is available","No rail (intercity, heavy, light, or commuter) service available",No ferry (intercity or transit) service available
Auzerais Ave at Lincoln Ave,San Jose,95126,-121.908296,37.320969,1,"No bus (transit, intercity, supplemental, or code-share) service available","No rail (intercity, heavy, light, or commuter) service available",No ferry (intercity or transit) service available
The Alameda at Bush St,San Jose,95126,-121.9048882,37.331932,2,"Bus (transit, intercity, supplemental, or code-share) service is available","No rail (intercity, heavy, light, or commuter) service available",No ferry (intercity or transit) service available
Asbury St at The Alameda,San Jose,95126,-121.9194272,37.33801,2,"Bus (transit, intercity, supplemental, or code-share) service is available","No rail (intercity, heavy, light, or commuter) service available",No ferry (intercity or transit) service available
Sunol St at San Carlos St,San Jose,95126,-121.9059759,37.323451,2,"Bus (transit, intercity, supplemental, or code-share) service is available","No rail (intercity, heavy, light, or commuter) service available",No ferry (intercity or transit) service available
Auzerais Ave at Los Gatos Creek Trail,San Jose,95126,-121.9030899,37.321182,1,"No bus (transit, intercity, supplemental, or code-share) service available","No rail (intercity, heavy, light, or commuter) service available",No ferry (intercity or transit) service available
Park Ave at Race St,San Jose,95126,-121.9123274,37.326011,2,"Bus (transit, intercity, supplemental, or code-share) service is available","No rail (intercity, heavy, light, or commuter) service available",No ferry (intercity or transit) service available
San Carlos St at Meridian Ave,San Jose,95126,-121.9134969,37.323345,2,"Bus (transit, intercity, supplemental, or code-share) service is available","No rail (intercity, heavy, light, or commuter) service available",No ferry (intercity or transit) service available
Mercado Way at Sierra Rd,San Jose,95131,-121.8813318,37.371116,1,"No bus (transit, intercity, supplemental, or code-share) service available","No rail (intercity, heavy, light, or commuter) service available",No ferry (intercity or transit) service available
Newbury Park Dr at King Rd,San Francisco,95133,-121.8679664,37.365536,2,"Bus (transit, intercity, supplemental, or code-share) service is available","No rail (intercity, heavy, light, or commuter) service available",No ferry (intercity or transit) service available
1050 The Embarcadero,San Francisco,94105,-122.394203,37.795392,4,"Bus (transit, intercity, supplemental, or code-share) service is available","Rail (intercity, heavy, light, or commuter) service is available",Ferry (intercity or transit) service is available
10th Ave at E 15th St,Oakland,94606,-122.2487796,37.7927143,2,"Bus (transit, intercity, supplemental, or code-share) service is available","No rail (intercity, heavy, light, or commuter) service available",No ferry (intercity or transit) service available
10th St at Fallon St,Oakland,94607,-122.2629973,37.7976728,2,"Bus (transit, intercity, supplemental, or code-share) service is available","No rail (intercity, heavy, light, or commuter) service available",No ferry (intercity or transit) service available
10th St at University Ave,Berkeley,94710,-122.2933996,37.86906048,2,"Bus (transit, intercity, supplemental, or code-share) service is available","No rail (intercity, heavy, light, or commuter) service available",No ferry (intercity or transit) service available
11th St at Bryant St,San Francisco,94103,-122.4117258,37.7700298,2,"Bus (transit, intercity, supplemental, or code-share) service is available","No rail (intercity, heavy, light, or commuter) service available",No ferry (intercity or transit) service available
11th St at Natoma St,San Francisco,94103,-122.4160402,37.7735069,2,"Bus (transit, intercity, supplemental, or code-share) service is available","No rail (intercity, heavy, light, or commuter) service available",No ferry (intercity or transit) service available
120-127 W San Carlos Street,San Jose,95113,-121.888979,37.330698,3,"Bus (transit, intercity, supplemental, or code-share) service is available","Rail (intercity, heavy, light, or commuter) service is available",No ferry (intercity or transit) service available
12th St at 4th Ave,Oakland,94606,-122.2555549,37.7958125,1,"No bus (transit, intercity, supplemental, or code-share) service available","No rail (intercity, heavy, light, or commuter) service available",No ferry (intercity or transit) service available
12th St at 6th Ave,Oakland,94606,-122.2538745,37.7943532,2,"Bus (transit, intercity, supplemental, or code-share) service is available","No rail (intercity, heavy, light, or commuter) service available",No ferry (intercity or transit) service available
13th St at Franklin St,Oakland,94612,-122.2705793,37.80318908,3,"Bus (transit, intercity, supplemental, or code-share) service is available","Rail (intercity, heavy, light, or commuter) service is available",No ferry (intercity or transit) service available
14th St at Filbert St,Oakland,94607,-122.2832823,37.80874983,2,"Bus (transit, intercity, supplemental, or code-share) service is available","No rail (intercity, heavy, light, or commuter) service available",No ferry (intercity or transit) service available
14th St at Mandela Pkwy,Oakland,94607,-122.2914153,37.8107432,2,"Bus (transit, intercity, supplemental, or code-share) service is available","No rail (intercity, heavy, light, or commuter) service available",No ferry (intercity or transit) service available
14th St at Mission St,San Francisco,94103,-122.4201102,37.7682646,2,"Bus (transit, intercity, supplemental, or code-share) service is available","No rail (intercity, heavy, light, or commuter) service available",No ferry (intercity or transit) service available
151 S Almaden Blvd,San Jose,95113,-121.8932,37.331415,2,"Bus (transit, intercity, supplemental, or code-share) service is available","No rail (intercity, heavy, light, or commuter) service available",No ferry (intercity or transit) service available
152 N 3rd Street,San Jose,95112,-121.889937,37.339301,1,"No bus (transit, intercity, supplemental, or code-share) service available","No rail (intercity, heavy, light, or commuter) service available",No ferry (intercity or transit) service available
162 E San Fernando Street,San Jose,95112,-121.88566,37.335885,2,"Bus (transit, intercity, supplemental, or code-share) service is available","No rail (intercity, heavy, light, or commuter) service available",No ferry (intercity or transit) service available
16th St at Prosper St,San Francisco,94114,-122.4318042,37.764285,1,"No bus (transit, intercity, supplemental, or code-share) service available","No rail (intercity, heavy, light, or commuter) service available",No ferry (intercity or transit) service available
16th St Mission BART,San Francisco,94110,-122.4199569,37.76471009,2,"Bus (transit, intercity, supplemental, or code-share) service is available","No rail (intercity, heavy, light, or commuter) service available",No ferry (intercity or transit) service available
16th St Mission BART Station 2,San Francisco,94110,-122.420091,37.76476522,2,"Bus (transit, intercity, supplemental, or code-share) service is available","No rail (intercity, heavy, light, or commuter) service available",No ferry (intercity or transit) service available
17th & Folsom Street Park (17th St at Folsom St),San Francisco,94110,-122.4152042,37.7637085,1,"No bus (transit, intercity, supplemental, or code-share) service available","No rail (intercity, heavy, light, or commuter) service available",No ferry (intercity or transit) service available
17th St at Dolores St,San Francisco,94114,-122.4264968,37.7630152,1,"No bus (transit, intercity, supplemental, or code-share) service available","No rail (intercity, heavy, light, or commuter) service available",No ferry (intercity or transit) service available
17th St at Valencia St,San Francisco,94110,-122.4219039,37.7633158,1,"No bus (transit, intercity, supplemental, or code-share) service available","No rail (intercity, heavy, light, or commuter) service available",No ferry (intercity or transit) service available
18th St at Noe St,San Francisco,94114,-122.4326417,37.7610471,2,"Bus (transit, intercity, supplemental, or code-share) service is available","No rail (intercity, heavy, light, or commuter) service available",No ferry (intercity or transit) service available
198 Jackson Street,San Jose,95112,-121.894715,37.348742,1,"No bus (transit, intercity, supplemental, or code-share) service available","No rail (intercity, heavy, light, or commuter) service available",No ferry (intercity or transit) service available
19th St at Florida St,San Francisco,94110,-122.410807,37.7604469,1,"No bus (transit, intercity, supplemental, or code-share) service available","No rail (intercity, heavy, light, or commuter) service available",No ferry (intercity or transit) service available
19th St at Mission St,San Francisco,94110,-122.418892,37.760299,1,"No bus (transit, intercity, supplemental, or code-share) service available","No rail (intercity, heavy, light, or commuter) service available",No ferry (intercity or transit) service available
19th Street BART Station,Oakland,94612,-122.2682473,37.8090126,3,"Bus (transit, intercity, supplemental, or code-share) service is available","Rail (intercity, heavy, light, or commuter) service is available",No ferry (intercity or transit) service available
1st St at Folsom St,San Francisco,94105,-122.394106,37.78718,1,"No bus (transit, intercity, supplemental, or code-share) service available","No rail (intercity, heavy, light, or commuter) service available",No ferry (intercity or transit) service available
20th St at Bryant St,San Francisco,94110,-122.409851,37.7592005,2,"Bus (transit, intercity, supplemental, or code-share) service is available","No rail (intercity, heavy, light, or commuter) service available",No ferry (intercity or transit) service available
21st Ave at International Blvd,Oakland,94606,-122.2389151,37.7851566,2,"Bus (transit, intercity, supplemental, or code-share) service is available","No rail (intercity, heavy, light, or commuter) service available",No ferry (intercity or transit) service available
22nd St Caltrain Station,San Francisco,94107,-122.3920566,37.75736899,3,"Bus (transit, intercity, supplemental, or code-share) service is available","Rail (intercity, heavy, light, or commuter) service is available",No ferry (intercity or transit) service available
23rd Ave at Foothill Blvd,Oakland,94606,-122.2343822,37.7851915,2,"Bus (transit, intercity, supplemental, or code-share) service is available","No rail (intercity, heavy, light, or commuter) service available",No ferry (intercity or transit) service available
24 S 4th St,San Jose,95112,-121.886995,37.337391,2,"Bus (transit, intercity, supplemental, or code-share) service is available","No rail (intercity, heavy, light, or commuter) service available",No ferry (intercity or transit) service available
24th St at Chattanooga St,San Francisco,94114,-122.4266139,37.7518194,3,"Bus (transit, intercity, supplemental, or code-share) service is available","Rail (intercity, heavy, light, or commuter) service is available",No ferry (intercity or transit) service available
24th St at Market St,Oakland,94607,-122.2782444,37.8160598,2,"Bus (transit, intercity, supplemental, or code-share) service is available","No rail (intercity, heavy, light, or commuter) service available",No ferry (intercity or transit) service available
26th Ave at International Blvd,Oakland,94601,-122.2329915,37.781123,2,"Bus (transit, intercity, supplemental, or code-share) service is available","No rail (intercity, heavy, light, or commuter) service available",No ferry (intercity or transit) service available
27th St at MLK Jr Way,Oakland,94612,-122.2717615,37.8170154,2,"Bus (transit, intercity, supplemental, or code-share) service is available","No rail (intercity, heavy, light, or commuter) service available",No ferry (intercity or transit) service available
29th St at Church St,San Francisco,94131,-122.4268059,37.7436839,2,"No bus (transit, intercity, supplemental, or code-share) service available","Rail (intercity, heavy, light, or commuter) service is available",No ferry (intercity or transit) service available
29th St at Tiffany Ave,San Francisco,94110,-122.4214722,37.7440667,1,"No bus (transit, intercity, supplemental, or code-share) service available","No rail (intercity, heavy, light, or commuter) service available",No ferry (intercity or transit) service available
2nd at Howard,San Francisco,94105,-122.398108,37.786978,2,"Bus (transit, intercity, supplemental, or code-share) service is available","No rail (intercity, heavy, light, or commuter) service available",No ferry (intercity or transit) service available
2nd at South Park,San Francisco,94107,-122.392738,37.782259,2,"Bus (transit, intercity, supplemental, or code-share) service is available","No rail (intercity, heavy, light, or commuter) service available",No ferry (intercity or transit) service available
2nd at Townsend,San Francisco,94107,-122.390288,37.780526,3,"Bus (transit, intercity, supplemental, or code-share) service is available","Rail (intercity, heavy, light, or commuter) service is available",No ferry (intercity or transit) service available
2nd Ave at E 18th St,Oakland,94606,-122.2538102,37.80021357,2,"Bus (transit, intercity, supplemental, or code-share) service is available","No rail (intercity, heavy, light, or commuter) service available",No ferry (intercity or transit) service available
30th St at San Jose Ave,San Francisco,94110,-122.4231805,37.7423139,3,"Bus (transit, intercity, supplemental, or code-share) service is available","Rail (intercity, heavy, light, or commuter) service is available",No ferry (intercity or transit) service available
32nd St at Adeline St,Emeryville,94608,-122.2811926,37.8238474,2,"Bus (transit, intercity, supplemental, or code-share) service is available","No rail (intercity, heavy, light, or commuter) service available",No ferry (intercity or transit) service available
333 Townsend,San Francisco,94107,-122.395569,37.776317,3,"Bus (transit, intercity, supplemental, or code-share) service is available","Rail (intercity, heavy, light, or commuter) service is available",No ferry (intercity or transit) service available
34th St at Telegraph Ave,Oakland,94609,-122.2663179,37.8225475,2,"Bus (transit, intercity, supplemental, or code-share) service is available","No rail (intercity, heavy, light, or commuter) service available",No ferry (intercity or transit) service available
37th St at West St,Oakland,94609,-122.2717955,37.8266962,1,"No bus (transit, intercity, supplemental, or code-share) service available","No rail (intercity, heavy, light, or commuter) service available",No ferry (intercity or transit) service available
3rd St at Townsend St,San Francisco,94107,-122.392746,37.778804,2,"Bus (transit, intercity, supplemental, or code-share) service is available","No rail (intercity, heavy, light, or commuter) service available",No ferry (intercity or transit) service available
421-429 N 1st Street,San Jose,95112,-121.895617,37.342725,2,"Bus (transit, intercity, supplemental, or code-share) service is available","No rail (intercity, heavy, light, or commuter) service available",No ferry (intercity or transit) service available
45th St at Manila,Oakland,94609,-122.2562242,37.83329352,1,"No bus (transit, intercity, supplemental, or code-share) service available","No rail (intercity, heavy, light, or commuter) service available",No ferry (intercity or transit) service available
45th St at MLK Jr Way,Oakland,94609,-122.2674183,37.8335577,1,"No bus (transit, intercity, supplemental, or code-share) service available","No rail (intercity, heavy, light, or commuter) service available",No ferry (intercity or transit) service available
47th St at San Pablo Ave,Emeryville,94608,-122.2810507,37.8356322,2,"Bus (transit, intercity, supplemental, or code-share) service is available","No rail (intercity, heavy, light, or commuter) service available",No ferry (intercity or transit) service available
49th St at Telegraph Ave,Oakland,94609,-122.2623663,37.8359455,2,"Bus (transit, intercity, supplemental, or code-share) service is available","No rail (intercity, heavy, light, or commuter) service available",No ferry (intercity or transit) service available
4th St at 16th St,San Francisco,94158,-122.3908335,37.76704458,2,"Bus (transit, intercity, supplemental, or code-share) service is available","No rail (intercity, heavy, light, or commuter) service available",No ferry (intercity or transit) service available
4th St at Harrison St,San Francisco,94107,-122.3997492,37.7809546,2,"Bus (transit, intercity, supplemental, or code-share) service is available","No rail (intercity, heavy, light, or commuter) service available",No ferry (intercity or transit) service available
4th St at Mission Bay Blvd S,San Francisco,94158,-122.3911984,37.7704074,2,"Bus (transit, intercity, supplemental, or code-share) service is available","No rail (intercity, heavy, light, or commuter) service available",No ferry (intercity or transit) service available
50-56 N Autumn Street,San Jose,95110,-121.900084,37.332692,2,"Bus (transit, intercity, supplemental, or code-share) service is available","No rail (intercity, heavy, light, or commuter) service available",No ferry (intercity or transit) service available
53rd St at Hollis St,Emeryville,94608,-122.2871801,37.8361823,2,"Bus (transit, intercity, supplemental, or code-share) service is available","No rail (intercity, heavy, light, or commuter) service available",No ferry (intercity or transit) service available
55th St at Telegraph Ave,Oakland,94609,-122.2618225,37.8401858,2,"Bus (transit, intercity, supplemental, or code-share) service is available","No rail (intercity, heavy, light, or commuter) service available",No ferry (intercity or transit) service available
56-98 N San Pedro Street,San Jose,95110,-121.894074,37.336721,1,"No bus (transit, intercity, supplemental, or code-share) service available","No rail (intercity, heavy, light, or commuter) service available",No ferry (intercity or transit) service available
59th St at Horton St,Emeryville,94608,-122.2913604,37.8409452,3,"Bus (transit, intercity, supplemental, or code-share) service is available","Rail (intercity, heavy, light, or commuter) service is available",No ferry (intercity or transit) service available
5th St at Brannan St,San Francisco,94107,-122.3990176,37.7767539,2,"Bus (transit, intercity, supplemental, or code-share) service is available","No rail (intercity, heavy, light, or commuter) service available",No ferry (intercity or transit) service available
5th St at E. San Salvador St,San Jose,95112,-121.88163,37.331957,1,"No bus (transit, intercity, supplemental, or code-share) service available","No rail (intercity, heavy, light, or commuter) service available",No ferry (intercity or transit) service available
5th St at Folsom St,San Francisco,94107,-122.403158,37.780148,2,"Bus (transit, intercity, supplemental, or code-share) service is available","No rail (intercity, heavy, light, or commuter) service available",No ferry (intercity or transit) service available
5th St at Taylor St,San Jose,95112,-121.8959209,37.3510173,2,"Bus (transit, intercity, supplemental, or code-share) service is available","No rail (intercity, heavy, light, or commuter) service available",No ferry (intercity or transit) service available
5th St at Virginia St,San Jose,95112,-121.87712,37.3259984,1,"No bus (transit, intercity, supplemental, or code-share) service available","No rail (intercity, heavy, light, or commuter) service available",No ferry (intercity or transit) service available
65th St at Hollis St,Emeryville,94608,-122.2913761,37.8467842,2,"Bus (transit, intercity, supplemental, or code-share) service is available","No rail (intercity, heavy, light, or commuter) service available",No ferry (intercity or transit) service available
7th at Market,San Francisco,94102,-122.412919,37.780356,3,"Bus (transit, intercity, supplemental, or code-share) service is available","Rail (intercity, heavy, light, or commuter) service is available",No ferry (intercity or transit) service available
7th St at Brannan St,San Francisco,94103,-122.4036725,37.7734919,2,"Bus (transit, intercity, supplemental, or code-share) service is available","No rail (intercity, heavy, light, or commuter) service available",No ferry (intercity or transit) service available
8th St at Brannan St,San Francisco,94103,-122.4057868,37.77143136,2,"Bus (transit, intercity, supplemental, or code-share) service is available","No rail (intercity, heavy, light, or commuter) service available",No ferry (intercity or transit) service available
8th St at Ringold St,San Francisco,94103,-122.4094494,37.7745204,1,"No bus (transit, intercity, supplemental, or code-share) service available","No rail (intercity, heavy, light, or commuter) service available",No ferry (intercity or transit) service available
950 N San Pedro St,San Jose,95110,-121.905733,37.352601,2,"Bus (transit, intercity, supplemental, or code-share) service is available","No rail (intercity, heavy, light, or commuter) service available",No ferry (intercity or transit) service available
9th St at San Fernando,San Jose,95112,-121.8807965,37.3383952,1,"No bus (transit, intercity, supplemental, or code-share) service available","No rail (intercity, heavy, light, or commuter) service available",No ferry (intercity or transit) service available
Addison St at Fourth St,Berkeley,94710,-122.2993708,37.866249,2,"Bus (transit, intercity, supplemental, or code-share) service is available","No rail (intercity, heavy, light, or commuter) service available",No ferry (intercity or transit) service available
Adeline St at 40th St,Emeryville,94608,-122.2782669,37.8312769,2,"Bus (transit, intercity, supplemental, or code-share) service is available","No rail (intercity, heavy, light, or commuter) service available",No ferry (intercity or transit) service available
Alcatraz Ave at Shattuck Ave,Oakland,94609,-122.265569,37.84959497,2,"Bus (transit, intercity, supplemental, or code-share) service is available","No rail (intercity, heavy, light, or commuter) service available",No ferry (intercity or transit) service available
Almaden Blvd at Balbach St,San Jose,95110,-121.8892731,37.32673,1,"No bus (transit, intercity, supplemental, or code-share) service available","No rail (intercity, heavy, light, or commuter) service available",No ferry (intercity or transit) service available
Ashby BART Station,Berkeley,94703,-122.2702132,37.8524766,3,"Bus (transit, intercity, supplemental, or code-share) service is available","Rail (intercity, heavy, light, or commuter) service is available",No ferry (intercity or transit) service available
Autumn Parkway at Coleman Ave,San Jose,95110,-121.9031829,37.3413348,1,"No bus (transit, intercity, supplemental, or code-share) service available","No rail (intercity, heavy, light, or commuter) service available",No ferry (intercity or transit) service available
Bancroft Way at College Ave,Berkeley,94720,-122.2543374,37.8693603,2,"Bus (transit, intercity, supplemental, or code-share) service is available","No rail (intercity, heavy, light, or commuter) service available",No ferry (intercity or transit) service available
Bancroft Way at Telegraph Ave,Berkeley,94720,-122.258764,37.8688126,2,"Bus (transit, intercity, supplemental, or code-share) service is available","No rail (intercity, heavy, light, or commuter) service available",No ferry (intercity or transit) service available
Bay Pl at Vernon St,Oakland,94610,-122.2607785,37.81231409,1,"No bus (transit, intercity, supplemental, or code-share) service available","No rail (intercity, heavy, light, or commuter) service available",No ferry (intercity or transit) service available
Beale at Howard,San Francisco,94105,-122.394643,37.789756,2,"Bus (transit, intercity, supplemental, or code-share) service is available","No rail (intercity, heavy, light, or commuter) service available",No ferry (intercity or transit) service available
Beale at Market,San Francisco,94105,-122.397086,37.792251,3,"Bus (transit, intercity, supplemental, or code-share) service is available","Rail (intercity, heavy, light, or commuter) service is available",No ferry (intercity or transit) service available
Beale St at Harrison St,San Francisco,94105,-122.3918648,37.7880593,1,"No bus (transit, intercity, supplemental, or code-share) service available","No rail (intercity, heavy, light, or commuter) service available",No ferry (intercity or transit) service available
Berkeley Civic Center,Berkeley,94704,-122.270556,37.8690599,2,"Bus (transit, intercity, supplemental, or code-share) service is available","No rail (intercity, heavy, light, or commuter) service available",No ferry (intercity or transit) service available
Berry St at 4th St,San Francisco,94107,-122.393241,37.775871,3,"Bus (transit, intercity, supplemental, or code-share) service is available","Rail (intercity, heavy, light, or commuter) service is available",No ferry (intercity or transit) service available
Berry St at King St,San Francisco,94107,-122.3984376,37.77176211,1,"No bus (transit, intercity, supplemental, or code-share) service available","No rail (intercity, heavy, light, or commuter) service available",No ferry (intercity or transit) service available
Bestor Art Park,San Jose,95112,-121.8741186,37.3236779,1,"No bus (transit, intercity, supplemental, or code-share) service available","No rail (intercity, heavy, light, or commuter) service available",No ferry (intercity or transit) service available
Broadway at 30th St,Oakland,94609,-122.2619284,37.8193814,1,"No bus (transit, intercity, supplemental, or code-share) service available","No rail (intercity, heavy, light, or commuter) service available",No ferry (intercity or transit) service available
Broadway at 40th St,Oakland,94609,-122.2567156,37.8277573,2,"Bus (transit, intercity, supplemental, or code-share) service is available","No rail (intercity, heavy, light, or commuter) service available",No ferry (intercity or transit) service available
Broadway at Coronado Ave,Oakland,94618,-122.2516207,37.8357883,1,"No bus (transit, intercity, supplemental, or code-share) service available","No rail (intercity, heavy, light, or commuter) service available",No ferry (intercity or transit) service available
Broadway at Kearny,San Francisco,94133,-122.4059504,37.79801364,2,"Bus (transit, intercity, supplemental, or code-share) service is available","No rail (intercity, heavy, light, or commuter) service available",No ferry (intercity or transit) service available
Broderick St at Oak St,San Francisco,94117,-122.4390777,37.7730627,1,"No bus (transit, intercity, supplemental, or code-share) service available","No rail (intercity, heavy, light, or commuter) service available",No ferry (intercity or transit) service available
Bryant St at 15th St,San Francisco,94103,-122.410662,37.7671004,2,"Bus (transit, intercity, supplemental, or code-share) service is available","No rail (intercity, heavy, light, or commuter) service available",No ferry (intercity or transit) service available
Bryant St at 2nd St,San Francisco,94107,-122.393572,37.78317199,1,"No bus (transit, intercity, supplemental, or code-share) service available","No rail (intercity, heavy, light, or commuter) service available",No ferry (intercity or transit) service available
Bryant St at 6th St,San Francisco,94103,-122.40259,37.775975,2,"Bus (transit, intercity, supplemental, or code-share) service is available","No rail (intercity, heavy, light, or commuter) service available",No ferry (intercity or transit) service available
Bushrod Park,Oakland,94609,-122.2653043,37.8465156,2,"Bus (transit, intercity, supplemental, or code-share) service is available","No rail (intercity, heavy, light, or commuter) service available",No ferry (intercity or transit) service available
Cahill Park,San Jose,95110,-121.9046,37.32905,3,"Bus (transit, intercity, supplemental, or code-share) service is available","Rail (intercity, heavy, light, or commuter) service is available",No ferry (intercity or transit) service available
California St at University Ave,Berkeley,94703,-122.2797203,37.87055533,2,"Bus (transit, intercity, supplemental, or code-share) service is available","No rail (intercity, heavy, light, or commuter) service available",No ferry (intercity or transit) service available
Central Ave at Fell St,San Francisco,94117,-122.4442926,37.77331088,2,"Bus (transit, intercity, supplemental, or code-share) service is available","No rail (intercity, heavy, light, or commuter) service available",No ferry (intercity or transit) service available
Cesar Chavez St at Dolores St,San Francisco,94131,-122.4249863,37.7478584,1,"No bus (transit, intercity, supplemental, or code-share) service available","No rail (intercity, heavy, light, or commuter) service available",No ferry (intercity or transit) service available
Channing Way at San Pablo Ave,Berkeley,94710,-122.2902305,37.8628271,2,"Bus (transit, intercity, supplemental, or code-share) service is available","No rail (intercity, heavy, light, or commuter) service available",No ferry (intercity or transit) service available
Channing Way at Shattuck Ave,Berkeley,94704,-122.2674431,37.8658466,2,"Bus (transit, intercity, supplemental, or code-share) service is available","No rail (intercity, heavy, light, or commuter) service available",No ferry (intercity or transit) service available
Church St at Duboce Ave,San Francisco,94114,-122.4291557,37.7700831,2,"Bus (transit, intercity, supplemental, or code-share) service is available","No rail (intercity, heavy, light, or commuter) service available",No ferry (intercity or transit) service available
Civic Center/UN Plaza BART Station (Market St at McAllister St),San Francisco,94103,-122.4117382,37.7810737,3,"Bus (transit, intercity, supplemental, or code-share) service is available","Rail (intercity, heavy, light, or commuter) service is available",No ferry (intercity or transit) service available
Clay at Battery,San Francisco,94111,-122.39997,37.795001,2,"Bus (transit, intercity, supplemental, or code-share) service is available","No rail (intercity, heavy, light, or commuter) service available",No ferry (intercity or transit) service available
College Ave at Alcatraz Ave,Berkeley,94705,-122.2525233,37.8513755,2,"Bus (transit, intercity, supplemental, or code-share) service is available","No rail (intercity, heavy, light, or commuter) service available",No ferry (intercity or transit) service available
College Ave at Bryant Ave,Oakland,94618,-122.2512714,37.8381269,1,"No bus (transit, intercity, supplemental, or code-share) service available","No rail (intercity, heavy, light, or commuter) service available",No ferry (intercity or transit) service available
College Ave at Harwood Ave,Oakland,94618,-122.2521599,37.848152,1,"No bus (transit, intercity, supplemental, or code-share) service available","No rail (intercity, heavy, light, or commuter) service available",No ferry (intercity or transit) service available
College Ave at Taft Ave,Oakland,94618,-122.2515349,37.8417999,2,"Bus (transit, intercity, supplemental, or code-share) service is available","No rail (intercity, heavy, light, or commuter) service available",No ferry (intercity or transit) service available
Cyril Magnin at Market,San Francisco,94102,-122.408433,37.783871,3,"Bus (transit, intercity, supplemental, or code-share) service is available","Rail (intercity, heavy, light, or commuter) service is available",No ferry (intercity or transit) service available
Cyril Magnin St at Ellis St,San Francisco,94102,-122.408891,37.785908,2,"Bus (transit, intercity, supplemental, or code-share) service is available","No rail (intercity, heavy, light, or commuter) service available",No ferry (intercity or transit) service available
DeFremery Park,Oakland,94607,-122.2851712,37.8123315,2,"Bus (transit, intercity, supplemental, or code-share) service is available","No rail (intercity, heavy, light, or commuter) service available",No ferry (intercity or transit) service available
Delmas Ave and San Fernando St,San Jose,95110,-121.8977018,37.3302641,3,"Bus (transit, intercity, supplemental, or code-share) service is available","Rail (intercity, heavy, light, or commuter) service is available",No ferry (intercity or transit) service available
Derby St at College Ave,Berkeley,94704,-122.2535687,37.8618037,2,"Bus (transit, intercity, supplemental, or code-share) service is available","No rail (intercity, heavy, light, or commuter) service available",No ferry (intercity or transit) service available
Division St at Potrero Ave,San Francisco,94103,-122.4076456,37.76921786,1,"No bus (transit, intercity, supplemental, or code-share) service available","No rail (intercity, heavy, light, or commuter) service available",No ferry (intercity or transit) service available
Dolores St at 15th St,San Francisco,94103,-122.4266136,37.7662102,1,"No bus (transit, intercity, supplemental, or code-share) service available","No rail (intercity, heavy, light, or commuter) service available",No ferry (intercity or transit) service available
Dover St at 57th St,Oakland,94609,-122.267738,37.8426295,1,"No bus (transit, intercity, supplemental, or code-share) service available","No rail (intercity, heavy, light, or commuter) service available",No ferry (intercity or transit) service available
Downtown Berkeley BART,Berkeley,94704,-122.2677637,37.8703477,3,"Bus (transit, intercity, supplemental, or code-share) service is available","Rail (intercity, heavy, light, or commuter) service is available",No ferry (intercity or transit) service available
Doyle St at 59th St,Emeryville,94608,-122.2880451,37.8419238,1,"No bus (transit, intercity, supplemental, or code-share) service available","No rail (intercity, heavy, light, or commuter) service available",No ferry (intercity or transit) service available
Duboce Park,San Francisco,94117,-122.4338119,37.7692005,2,"No bus (transit, intercity, supplemental, or code-share) service available","Rail (intercity, heavy, light, or commuter) service is available",No ferry (intercity or transit) service available
El Embarcadero at Grand Ave,Oakland,94610,-122.2496799,37.8088479,1,"No bus (transit, intercity, supplemental, or code-share) service available","No rail (intercity, heavy, light, or commuter) service available",No ferry (intercity or transit) service available
Ellsworth St at Russell St,Berkeley,94705,-122.2615778,37.85749021,1,"No bus (transit, intercity, supplemental, or code-share) service available","No rail (intercity, heavy, light, or commuter) service available",No ferry (intercity or transit) service available
Embarcadero at Sansome,San Francisco,94111,-122.403234,37.80477,3,"Bus (transit, intercity, supplemental, or code-share) service is available","Rail (intercity, heavy, light, or commuter) service is available",No ferry (intercity or transit) service available
Emeryville Public Market,Emeryville,94608,-122.2935283,37.84052117,2,"Bus (transit, intercity, supplemental, or code-share) service is available","No rail (intercity, heavy, light, or commuter) service available",No ferry (intercity or transit) service available
Emeryville Town Hall,Emeryville,94608,-122.2856333,37.8312752,1,"No bus (transit, intercity, supplemental, or code-share) service available","No rail (intercity, heavy, light, or commuter) service available",No ferry (intercity or transit) service available
Empire St at 1st St,San Jose,95112,-121.8969655,37.3448821,3,"Bus (transit, intercity, supplemental, or code-share) service is available","Rail (intercity, heavy, light, or commuter) service is available",No ferry (intercity or transit) service available
Esprit Park,San Francisco,94107,-122.3906477,37.7616343,1,"No bus (transit, intercity, supplemental, or code-share) service available","No rail (intercity, heavy, light, or commuter) service available",No ferry (intercity or transit) service available
Eureka Valley Recreation Center,San Francisco,94114,-122.4369431,37.7591769,1,"No bus (transit, intercity, supplemental, or code-share) service available","No rail (intercity, heavy, light, or commuter) service available",No ferry (intercity or transit) service available
Father Alfred E Boeddeker Park,San Francisco,94102,-122.412408,37.7839879,2,"Bus (transit, intercity, supplemental, or code-share) service is available","No rail (intercity, heavy, light, or commuter) service available",No ferry (intercity or transit) service available
Fifth St at Delaware St,Berkeley,94710,-122.2996759,37.87040712,1,"No bus (transit, intercity, supplemental, or code-share) service available","No rail (intercity, heavy, light, or commuter) service available",No ferry (intercity or transit) service available
Folsom St at 13th St,San Francisco,94103,-122.415674,37.769757,1,"No bus (transit, intercity, supplemental, or code-share) service available","No rail (intercity, heavy, light, or commuter) service available",No ferry (intercity or transit) service available
Folsom St at 15th St,San Francisco,94103,-122.4154425,37.7670373,1,"No bus (transit, intercity, supplemental, or code-share) service available","No rail (intercity, heavy, light, or commuter) service available",No ferry (intercity or transit) service available
Folsom St at 19th St,San Francisco,94110,-122.4148171,37.7605936,1,"No bus (transit, intercity, supplemental, or code-share) service available","No rail (intercity, heavy, light, or commuter) service available",No ferry (intercity or transit) service available
Folsom St at 3rd St,San Francisco,94105,-122.398916,37.783844,2,"Bus (transit, intercity, supplemental, or code-share) service is available","No rail (intercity, heavy, light, or commuter) service available",No ferry (intercity or transit) service available
Folsom St at 9th St,San Francisco,94103,-122.4116467,37.7737172,2,"Bus (transit, intercity, supplemental, or code-share) service is available","No rail (intercity, heavy, light, or commuter) service available",No ferry (intercity or transit) service available
Foothill Blvd at 42nd Ave,Oakland,94601,-122.2130372,37.7757452,2,"Bus (transit, intercity, supplemental, or code-share) service is available","No rail (intercity, heavy, light, or commuter) service available",No ferry (intercity or transit) service available
Foothill Blvd at Fruitvale Ave,Oakland,94601,-122.2226033,37.7837569,2,"Bus (transit, intercity, supplemental, or code-share) service is available","No rail (intercity, heavy, light, or commuter) service available",No ferry (intercity or transit) service available
Foothill Blvd at Harrington Ave,Oakland,94601,-122.2177284,37.77993,1,"No bus (transit, intercity, supplemental, or code-share) service available","No rail (intercity, heavy, light, or commuter) service available",No ferry (intercity or transit) service available
Fountain Alley at S 2nd St,San Jose,95113,-121.8892765,37.3361883,3,"Bus (transit, intercity, supplemental, or code-share) service is available","Rail (intercity, heavy, light, or commuter) service is available",No ferry (intercity or transit) service available
Frank H Ogawa Plaza,Oakland,94612,-122.2717381,37.80456235,2,"Bus (transit, intercity, supplemental, or code-share) service is available","No rail (intercity, heavy, light, or commuter) service available",No ferry (intercity or transit) service available
Franklin Square,San Francisco,94110,-122.410345,37.764555,2,"Bus (transit, intercity, supplemental, or code-share) service is available","No rail (intercity, heavy, light, or commuter) service available",No ferry (intercity or transit) service available
Franklin St at 9th St,Oakland,94607,-122.2720799,37.8005161,1,"No bus (transit, intercity, supplemental, or code-share) service available","No rail (intercity, heavy, light, or commuter) service available",No ferry (intercity or transit) service available
Fruitvale Ave at International Blvd,Oakland,94601,-122.225771,37.7776818,2,"Bus (transit, intercity, supplemental, or code-share) service is available","No rail (intercity, heavy, light, or commuter) service available",No ferry (intercity or transit) service available
Fruitvale BART Station,Oakland,94601,-122.2244982,37.7752321,3,"Bus (transit, intercity, supplemental, or code-share) service is available","Rail (intercity, heavy, light, or commuter) service is available",No ferry (intercity or transit) service available
Fulton St at Ashby Ave,Berkeley,94705,-122.2635654,37.85557366,2,"Bus (transit, intercity, supplemental, or code-share) service is available","No rail (intercity, heavy, light, or commuter) service available",No ferry (intercity or transit) service available
Fulton St at Bancroft Way,Berkeley,94704,-122.2658964,37.8677892,2,"Bus (transit, intercity, supplemental, or code-share) service is available","No rail (intercity, heavy, light, or commuter) service available",No ferry (intercity or transit) service available
Garfield Square (25th St at Harrison St),San Francisco,94110,-122.4119009,37.7510171,1,"No bus (transit, intercity, supplemental, or code-share) service available","No rail (intercity, heavy, light, or commuter) service available",No ferry (intercity or transit) service available
Genoa St at 55th St,Emeryville,94608,-122.2717561,37.8396488,1,"No bus (transit, intercity, supplemental, or code-share) service available","No rail (intercity, heavy, light, or commuter) service available",No ferry (intercity or transit) service available
George St at 1st St,San Jose,95110,-121.899464,37.3477319,2,"Bus (transit, intercity, supplemental, or code-share) service is available","No rail (intercity, heavy, light, or commuter) service available",No ferry (intercity or transit) service available
Golden Gate at Polk,San Francisco,94102,-122.418603,37.781332,2,"Bus (transit, intercity, supplemental, or code-share) service is available","No rail (intercity, heavy, light, or commuter) service available",No ferry (intercity or transit) service available
Golden Gate Ave at Hyde St,San Francisco,94102,-122.4154077,37.7816495,1,"No bus (transit, intercity, supplemental, or code-share) service available","No rail (intercity, heavy, light, or commuter) service available",No ferry (intercity or transit) service available
Grand Ave at Perkins St,Oakland,94610,-122.2564602,37.80889393,2,"Bus (transit, intercity, supplemental, or code-share) service is available","No rail (intercity, heavy, light, or commuter) service available",No ferry (intercity or transit) service available
Grand Ave at Santa Clara Ave,Oakland,94610,-122.2472152,37.8127441,2,"Bus (transit, intercity, supplemental, or code-share) service is available","No rail (intercity, heavy, light, or commuter) service available",No ferry (intercity or transit) service available
Grand Ave at Webster St,Oakland,94612,-122.2651925,37.8113768,2,"Bus (transit, intercity, supplemental, or code-share) service is available","No rail (intercity, heavy, light, or commuter) service available",No ferry (intercity or transit) service available
Grant at Columbus,San Francisco,94133,-122.407245,37.798522,2,"Bus (transit, intercity, supplemental, or code-share) service is available","No rail (intercity, heavy, light, or commuter) service available",No ferry (intercity or transit) service available
Grove St at Divisadero,San Francisco,94117,-122.4377775,37.775946,1,"No bus (transit, intercity, supplemental, or code-share) service available","No rail (intercity, heavy, light, or commuter) service available",No ferry (intercity or transit) service available
Harmon St at Adeline St,Berkeley,94703,-122.270582,37.849735,2,"Bus (transit, intercity, supplemental, or code-share) service is available","No rail (intercity, heavy, light, or commuter) service available",No ferry (intercity or transit) service available
Harrison St at 17th St,San Francisco,94110,-122.4130036,37.7638471,1,"No bus (transit, intercity, supplemental, or code-share) service available","No rail (intercity, heavy, light, or commuter) service available",No ferry (intercity or transit) service available
Harrison St at 20th St,San Francisco,94110,-122.412544,37.758862,1,"No bus (transit, intercity, supplemental, or code-share) service available","No rail (intercity, heavy, light, or commuter) service available",No ferry (intercity or transit) service available
Haste St at College Ave,Berkeley,94704,-122.2537994,37.86641794,2,"Bus (transit, intercity, supplemental, or code-share) service is available","No rail (intercity, heavy, light, or commuter) service available",No ferry (intercity or transit) service available
Haste St at Telegraph Ave,Berkeley,94704,-122.2588044,37.8660431,2,"Bus (transit, intercity, supplemental, or code-share) service is available","No rail (intercity, heavy, light, or commuter) service available",No ferry (intercity or transit) service available
Hearst Ave at Euclid Ave,Berkeley,94709,-122.2605532,37.87511169,2,"Bus (transit, intercity, supplemental, or code-share) service is available","No rail (intercity, heavy, light, or commuter) service available",No ferry (intercity or transit) service available
Horton St at 40th St,Emeryville,94608,-122.2876102,37.8297046,2,"Bus (transit, intercity, supplemental, or code-share) service is available","No rail (intercity, heavy, light, or commuter) service available",No ferry (intercity or transit) service available
Howard St at 8th St,San Francisco,94103,-122.4113061,37.7765126,2,"Bus (transit, intercity, supplemental, or code-share) service is available","No rail (intercity, heavy, light, or commuter) service available",No ferry (intercity or transit) service available
Howard St at Mary St,San Francisco,94103,-122.4056661,37.78100972,1,"No bus (transit, intercity, supplemental, or code-share) service available","No rail (intercity, heavy, light, or commuter) service available",No ferry (intercity or transit) service available
Hubbell St at 16th St,San Francisco,94107,-122.3982954,37.76647422,2,"Bus (transit, intercity, supplemental, or code-share) service is available","No rail (intercity, heavy, light, or commuter) service available",No ferry (intercity or transit) service available
Irwin St at 8th St,San Francisco,94107,-122.3995794,37.7668828,2,"Bus (transit, intercity, supplemental, or code-share) service is available","No rail (intercity, heavy, light, or commuter) service available",No ferry (intercity or transit) service available
Isabella St at San Pablo Ave,Oakland,94612,-122.2748441,37.81498823,2,"Bus (transit, intercity, supplemental, or code-share) service is available","No rail (intercity, heavy, light, or commuter) service available",No ferry (intercity or transit) service available
Jack London Square,Oakland,94607,-122.279352,37.796248,1,"No bus (transit, intercity, supplemental, or code-share) service available","No rail (intercity, heavy, light, or commuter) service available",No ferry (intercity or transit) service available
Jackson and Davis,San Francisco,94111,-122.398436,37.79728,1,"No bus (transit, intercity, supplemental, or code-share) service available","No rail (intercity, heavy, light, or commuter) service available",No ferry (intercity or transit) service available
Jackson Playground,San Francisco,94107,-122.3987734,37.7650259,1,"No bus (transit, intercity, supplemental, or code-share) service available","No rail (intercity, heavy, light, or commuter) service available",No ferry (intercity or transit) service available
Jackson St at 11th St,Oakland,94607,-122.266438,37.80000163,2,"Bus (transit, intercity, supplemental, or code-share) service is available","No rail (intercity, heavy, light, or commuter) service available",No ferry (intercity or transit) service available
Jackson St at 5th St,San Jose,95112,-121.8947978,37.34875869,1,"No bus (transit, intercity, supplemental, or code-share) service available","No rail (intercity, heavy, light, or commuter) service available",No ferry (intercity or transit) service available
Jersey St at Castro St,San Francisco,94114,-122.4339496,37.750506,2,"Bus (transit, intercity, supplemental, or code-share) service is available","No rail (intercity, heavy, light, or commuter) service available",No ferry (intercity or transit) service available
Jersey St at Church St,San Francisco,94114,-122.4274114,37.7509004,3,"Bus (transit, intercity, supplemental, or code-share) service is available","Rail (intercity, heavy, light, or commuter) service is available",No ferry (intercity or transit) service available
Julian St at 6th St,San Jose,95112,-121.8888891,37.3429973,2,"Bus (transit, intercity, supplemental, or code-share) service is available","No rail (intercity, heavy, light, or commuter) service available",No ferry (intercity or transit) service available
Julian St at The Alameda,San Jose,95126,-121.9125165,37.3322326,2,"Bus (transit, intercity, supplemental, or code-share) service is available","No rail (intercity, heavy, light, or commuter) service available",No ferry (intercity or transit) service available
Koshland Park,San Francisco,94102,-122.4273169,37.77341397,1,"No bus (transit, intercity, supplemental, or code-share) service available","No rail (intercity, heavy, light, or commuter) service available",No ferry (intercity or transit) service available
Laguna St at Hayes St,San Francisco,94102,-122.426244,37.77643482,1,"No bus (transit, intercity, supplemental, or code-share) service available","No rail (intercity, heavy, light, or commuter) service available",No ferry (intercity or transit) service available
Lake Merritt BART Station,Oakland,94607,-122.2653199,37.7973195,3,"Bus (transit, intercity, supplemental, or code-share) service is available","Rail (intercity, heavy, light, or commuter) service is available",No ferry (intercity or transit) service available
Lakeshore Ave at Trestle Glen Rd,Oakland,94610,-122.2432677,37.8110807,1,"No bus (transit, intercity, supplemental, or code-share) service available","No rail (intercity, heavy, light, or commuter) service available",No ferry (intercity or transit) service available
Lakeside Dr at 14th St,Oakland,94612,-122.2626418,37.8013189,2,"Bus (transit, intercity, supplemental, or code-share) service is available","No rail (intercity, heavy, light, or commuter) service available",No ferry (intercity or transit) service available
Locust St at Grant St,San Jose,95110,-121.8879312,37.3229796,1,"No bus (transit, intercity, supplemental, or code-share) service available","No rail (intercity, heavy, light, or commuter) service available",No ferry (intercity or transit) service available
MacArthur BART Station,Oakland,94609,-122.2663146,37.82840997,3,"Bus (transit, intercity, supplemental, or code-share) service is available","Rail (intercity, heavy, light, or commuter) service is available",No ferry (intercity or transit) service available
MacArthur Blvd at Telegraph Ave,Oakland,94609,-122.2651002,37.8262863,1,"No bus (transit, intercity, supplemental, or code-share) service available","No rail (intercity, heavy, light, or commuter) service available",No ferry (intercity or transit) service available
Market at 10th,San Francisco,94103,-122.417385,37.776619,3,"Bus (transit, intercity, supplemental, or code-share) service is available","Rail (intercity, heavy, light, or commuter) service is available",No ferry (intercity or transit) service available
Market at 4th,San Francisco,94103,-122.404966,37.786305,3,"Bus (transit, intercity, supplemental, or code-share) service is available","Rail (intercity, heavy, light, or commuter) service is available",No ferry (intercity or transit) service available
Market at Battery,San Francisco,94111,-122.399051,37.7913,3,"Bus (transit, intercity, supplemental, or code-share) service is available","Rail (intercity, heavy, light, or commuter) service is available",No ferry (intercity or transit) service available
Market St at 40th St,Emeryville,94608,-122.2739367,37.8305452,2,"Bus (transit, intercity, supplemental, or code-share) service is available","No rail (intercity, heavy, light, or commuter) service available",No ferry (intercity or transit) service available
Market St at 45th St,Emeryville,94608,-122.272968,37.834174,2,"Bus (transit, intercity, supplemental, or code-share) service is available","No rail (intercity, heavy, light, or commuter) service available",No ferry (intercity or transit) service available
Market St at 8th St,Oakland,94607,-122.282497,37.8036865,1,"No bus (transit, intercity, supplemental, or code-share) service available","No rail (intercity, heavy, light, or commuter) service available",No ferry (intercity or transit) service available
Market St at Brockhurst St,Emeryville,94608,-122.2757325,37.8233214,2,"Bus (transit, intercity, supplemental, or code-share) service is available","No rail (intercity, heavy, light, or commuter) service available",No ferry (intercity or transit) service available
Market St at Dolores St,San Francisco,94114,-122.4268256,37.7693053,2,"No bus (transit, intercity, supplemental, or code-share) service available","Rail (intercity, heavy, light, or commuter) service is available",No ferry (intercity or transit) service available
Market St at Franklin St,San Francisco,94102,-122.421239,37.77379321,3,"Bus (transit, intercity, supplemental, or code-share) service is available","Rail (intercity, heavy, light, or commuter) service is available",No ferry (intercity or transit) service available
Market Street at Sansome,San Francisco,94104,-122.400811,37.789625,3,"Bus (transit, intercity, supplemental, or code-share) service is available","Rail (intercity, heavy, light, or commuter) service is available",No ferry (intercity or transit) service available
Marston Campbell Park,Oakland,94607,-122.2801923,37.8098236,2,"Bus (transit, intercity, supplemental, or code-share) service is available","No rail (intercity, heavy, light, or commuter) service available",No ferry (intercity or transit) service available
McAllister St at Baker St,San Francisco,94115,-122.4418376,37.7774157,2,"Bus (transit, intercity, supplemental, or code-share) service is available","No rail (intercity, heavy, light, or commuter) service available",No ferry (intercity or transit) service available
McCoppin St at Valencia St,San Francisco,94103,-122.4224232,37.77166246,1,"No bus (transit, intercity, supplemental, or code-share) service available","No rail (intercity, heavy, light, or commuter) service available",No ferry (intercity or transit) service available
Milvia St at Derby St,Berkeley,94704,-122.2693844,37.8601246,1,"No bus (transit, intercity, supplemental, or code-share) service available","No rail (intercity, heavy, light, or commuter) service available",No ferry (intercity or transit) service available
Mission Bay Kids Park,San Francisco,94158,-122.3930275,37.77230063,2,"Bus (transit, intercity, supplemental, or code-share) service is available","No rail (intercity, heavy, light, or commuter) service available",No ferry (intercity or transit) service available
Mission Dolores Park,San Francisco,94114,-122.4264353,37.7614205,2,"Bus (transit, intercity, supplemental, or code-share) service is available","No rail (intercity, heavy, light, or commuter) service available",No ferry (intercity or transit) service available
Mission Playground,San Francisco,94110,-122.4213392,37.7592103,1,"No bus (transit, intercity, supplemental, or code-share) service available","No rail (intercity, heavy, light, or commuter) service available",No ferry (intercity or transit) service available
Mission St at 1st St,San Jose,95110,-121.9020161,37.3509643,3,"Bus (transit, intercity, supplemental, or code-share) service is available","Rail (intercity, heavy, light, or commuter) service is available",No ferry (intercity or transit) service available
Mississippi St at 17th St,San Francisco,94107,-122.3947713,37.7648022,1,"No bus (transit, intercity, supplemental, or code-share) service available","No rail (intercity, heavy, light, or commuter) service available",No ferry (intercity or transit) service available
MLK Jr Way at 14th St,Oakland,94612,-122.2760402,37.8061628,2,"Bus (transit, intercity, supplemental, or code-share) service is available","No rail (intercity, heavy, light, or commuter) service available",No ferry (intercity or transit) service available
MLK Jr Way at University Ave,Berkeley,94703,-122.2730677,37.8717192,2,"Bus (transit, intercity, supplemental, or code-share) service is available","No rail (intercity, heavy, light, or commuter) service available",No ferry (intercity or transit) service available
Morrison Ave at Julian St,San Jose,95126,-121.9085859,37.3336577,1,"No bus (transit, intercity, supplemental, or code-share) service available","No rail (intercity, heavy, light, or commuter) service available",No ferry (intercity or transit) service available
Mosswood Park,Oakland,94609,-122.2604787,37.8249311,1,"No bus (transit, intercity, supplemental, or code-share) service available","No rail (intercity, heavy, light, or commuter) service available",No ferry (intercity or transit) service available
Ninth St at Heinz Ave,Berkeley,94710,-122.2894154,37.8534894,1,"No bus (transit, intercity, supplemental, or code-share) service available","No rail (intercity, heavy, light, or commuter) service available",No ferry (intercity or transit) service available
Ninth St at Parker St,Berkeley,94710,-122.2912095,37.8588682,1,"No bus (transit, intercity, supplemental, or code-share) service available","No rail (intercity, heavy, light, or commuter) service available",No ferry (intercity or transit) service available
North Berkeley BART Station,Berkeley,94702,-122.283019,37.8740141,3,"Bus (transit, intercity, supplemental, or code-share) service is available","Rail (intercity, heavy, light, or commuter) service is available",No ferry (intercity or transit) service available
O'Farrell St at Divisadero St,San Francisco,94115,-122.4394459,37.7824046,1,"No bus (transit, intercity, supplemental, or code-share) service available","No rail (intercity, heavy, light, or commuter) service available",No ferry (intercity or transit) service available
Oak St at 1st St,San Jose,95110,-121.8810904,37.32212463,2,"Bus (transit, intercity, supplemental, or code-share) service is available","No rail (intercity, heavy, light, or commuter) service available",No ferry (intercity or transit) service available
Oregon St at Adeline St,Berkeley,94703,-122.2675583,37.8575672,2,"Bus (transit, intercity, supplemental, or code-share) service is available","No rail (intercity, heavy, light, or commuter) service available",No ferry (intercity or transit) service available
Page St at Scott St,San Francisco,94117,-122.4356498,37.772406,1,"No bus (transit, intercity, supplemental, or code-share) service available","No rail (intercity, heavy, light, or commuter) service available",No ferry (intercity or transit) service available
Palm St at Willow St,San Jose,95110,-121.884995,37.3172979,2,"Bus (transit, intercity, supplemental, or code-share) service is available","No rail (intercity, heavy, light, or commuter) service available",No ferry (intercity or transit) service available
Parker St at Fulton St,Berkeley,94704,-122.2647911,37.8624644,1,"No bus (transit, intercity, supplemental, or code-share) service available","No rail (intercity, heavy, light, or commuter) service available",No ferry (intercity or transit) service available
Paseo de San Antonio - S 2nd Street,San Jose,95113,-121.886943,37.333798,3,"Bus (transit, intercity, supplemental, or code-share) service is available","Rail (intercity, heavy, light, or commuter) service is available",No ferry (intercity or transit) service available
Pierce Ave at Market St,San Jose,95113,-121.884559,37.327581,2,"Bus (transit, intercity, supplemental, or code-share) service is available","No rail (intercity, heavy, light, or commuter) service available",No ferry (intercity or transit) service available
Pierce St at Haight St,San Francisco,94117,-122.4337079,37.7717933,2,"Bus (transit, intercity, supplemental, or code-share) service is available","No rail (intercity, heavy, light, or commuter) service available",No ferry (intercity or transit) service available
Potrero Ave and Mariposa St,San Francisco,94110,-122.4073774,37.76328094,2,"Bus (transit, intercity, supplemental, or code-share) service is available","No rail (intercity, heavy, light, or commuter) service available",No ferry (intercity or transit) service available
Powell at Post,San Francisco,94102,-122.408499,37.788446,3,"Bus (transit, intercity, supplemental, or code-share) service is available","Rail (intercity, heavy, light, or commuter) service is available",No ferry (intercity or transit) service available
Precita Park,San Francisco,94110,-122.4114029,37.7472996,2,"Bus (transit, intercity, supplemental, or code-share) service is available","No rail (intercity, heavy, light, or commuter) service available",No ferry (intercity or transit) service available
Raymond Kimbell Playground,San Francisco,94115,-122.4345589,37.78381271,1,"No bus (transit, intercity, supplemental, or code-share) service available","No rail (intercity, heavy, light, or commuter) service available",No ferry (intercity or transit) service available
Rhode Island St at 17th St,San Francisco,94107,-122.4025701,37.7644783,2,"Bus (transit, intercity, supplemental, or code-share) service is available","No rail (intercity, heavy, light, or commuter) service available",No ferry (intercity or transit) service available
Rockridge BART Station,Oakland,94618,-122.2519004,37.84427875,3,"Bus (transit, intercity, supplemental, or code-share) service is available","Rail (intercity, heavy, light, or commuter) service is available",No ferry (intercity or transit) service available
Russell St at College Ave,Berkeley,94705,-122.2532529,37.8584732,2,"Bus (transit, intercity, supplemental, or code-share) service is available","No rail (intercity, heavy, light, or commuter) service available",No ferry (intercity or transit) service available
S Park St at 3rd St,San Francisco,94107,-122.3949894,37.7807601,1,"No bus (transit, intercity, supplemental, or code-share) service available","No rail (intercity, heavy, light, or commuter) service available",No ferry (intercity or transit) service available
S. Market St at Park Ave,San Jose,95113,-121.890429,37.332398,1,"No bus (transit, intercity, supplemental, or code-share) service available","No rail (intercity, heavy, light, or commuter) service available",No ferry (intercity or transit) service available
San Antonio Park,Oakland,94606,-122.2423732,37.79013985,2,"Bus (transit, intercity, supplemental, or code-share) service is available","No rail (intercity, heavy, light, or commuter) service available",No ferry (intercity or transit) service available
San Bruno Ave at 16th St,San Francisco,94103,-122.4056768,37.76600774,2,"Bus (transit, intercity, supplemental, or code-share) service is available","No rail (intercity, heavy, light, or commuter) service available",No ferry (intercity or transit) service available
San Carlos St at 11th St,San Jose,95112,-121.8766132,37.3364659,2,"Bus (transit, intercity, supplemental, or code-share) service is available","No rail (intercity, heavy, light, or commuter) service available",No ferry (intercity or transit) service available
San Fernando at 7th St,San Jose,95112,-121.8830739,37.337246,2,"Bus (transit, intercity, supplemental, or code-share) service is available","No rail (intercity, heavy, light, or commuter) service available",No ferry (intercity or transit) service available
San Fernando St at 4th St,San Jose,95192,-121.88566,37.335885,1,"No bus (transit, intercity, supplemental, or code-share) service available","No rail (intercity, heavy, light, or commuter) service available",No ferry (intercity or transit) service available
San Francisco City Hall (Polk St at Grove St),San Francisco,94102,-122.41823,37.77865,1,"No bus (transit, intercity, supplemental, or code-share) service available","No rail (intercity, heavy, light, or commuter) service available",No ferry (intercity or transit) service available
San Francisco Public Library (Grove St at Hyde St),San Francisco,94102,-122.4159292,37.7787677,2,"Bus (transit, intercity, supplemental, or code-share) service is available","No rail (intercity, heavy, light, or commuter) service available",No ferry (intercity or transit) service available
San Pablo Ave at 27th St,Oakland,94607,-122.2756976,37.8178269,2,"Bus (transit, intercity, supplemental, or code-share) service is available","No rail (intercity, heavy, light, or commuter) service available",No ferry (intercity or transit) service available
San Pablo Ave at MLK Jr Way,Oakland,94612,-122.2734217,37.8113514,2,"Bus (transit, intercity, supplemental, or code-share) service is available","No rail (intercity, heavy, light, or commuter) service available",No ferry (intercity or transit) service available
San Pablo Park,Berkeley,94702,-122.2831267,37.85578332,1,"No bus (transit, intercity, supplemental, or code-share) service available","No rail (intercity, heavy, light, or commuter) service available",No ferry (intercity or transit) service available
San Salvador at 1st,San Jose,95113,-121.885831,37.330165,2,"Bus (transit, intercity, supplemental, or code-share) service is available","No rail (intercity, heavy, light, or commuter) service available",No ferry (intercity or transit) service available
Sanchez St at 15th St,San Francisco,94114,-122.4310597,37.7662185,3,"Bus (transit, intercity, supplemental, or code-share) service is available","Rail (intercity, heavy, light, or commuter) service is available",No ferry (intercity or transit) service available
Sanchez St at 17th St,San Francisco,94114,-122.4306746,37.7632417,1,"No bus (transit, intercity, supplemental, or code-share) service available","No rail (intercity, heavy, light, or commuter) service available",No ferry (intercity or transit) service available
Santa Clara at Alamaden,San Jose,95110,-121.894902,37.333988,2,"Bus (transit, intercity, supplemental, or code-share) service is available","No rail (intercity, heavy, light, or commuter) service available",No ferry (intercity or transit) service available
Santa Clara St at 7th St,San Jose,95112,-121.8841054,37.3391456,2,"Bus (transit, intercity, supplemental, or code-share) service is available","No rail (intercity, heavy, light, or commuter) service available",No ferry (intercity or transit) service available
SAP Center,San Jose,95110,-121.900084,37.332692,2,"Bus (transit, intercity, supplemental, or code-share) service is available","No rail (intercity, heavy, light, or commuter) service available",No ferry (intercity or transit) service available
Scott St at Golden Gate Ave,San Francisco,94115,-122.4368608,37.7789994,1,"No bus (transit, intercity, supplemental, or code-share) service available","No rail (intercity, heavy, light, or commuter) service available",No ferry (intercity or transit) service available
Second at Folsom,San Francisco,94107,-122.396236,37.785299,2,"Bus (transit, intercity, supplemental, or code-share) service is available","No rail (intercity, heavy, light, or commuter) service available",No ferry (intercity or transit) service available
Shafter Ave at Cavour St,Oakland,94618,-122.2572427,37.8379469,1,"No bus (transit, intercity, supplemental, or code-share) service available","No rail (intercity, heavy, light, or commuter) service available",No ferry (intercity or transit) service available
Shattuck Ave at 51st St,Oakland,94609,-122.2640037,37.8368013,1,"No bus (transit, intercity, supplemental, or code-share) service available","No rail (intercity, heavy, light, or commuter) service available",No ferry (intercity or transit) service available
Shattuck Ave at 55th St,Oakland,94609,-122.2644881,37.8403643,2,"Bus (transit, intercity, supplemental, or code-share) service is available","No rail (intercity, heavy, light, or commuter) service available",No ferry (intercity or transit) service available
Shattuck Ave at Hearst Ave,Berkeley,94704,-122.2686176,37.8737917,2,"Bus (transit, intercity, supplemental, or code-share) service is available","No rail (intercity, heavy, light, or commuter) service available",No ferry (intercity or transit) service available
Shattuck Ave at Telegraph Ave,Oakland,94609,-122.2634901,37.8332786,2,"Bus (transit, intercity, supplemental, or code-share) service is available","No rail (intercity, heavy, light, or commuter) service available",No ferry (intercity or transit) service available
SJSU San Salvandor at 9th,San Jose,95112,-121.877349,37.333955,1,"No bus (transit, intercity, supplemental, or code-share) service available","No rail (intercity, heavy, light, or commuter) service available",No ferry (intercity or transit) service available
Snow Park,Oakland,94612,-122.2644961,37.80781318,1,"No bus (transit, intercity, supplemental, or code-share) service available","No rail (intercity, heavy, light, or commuter) service available",No ferry (intercity or transit) service available
South Van Ness Avenue at Market,San Francisco,94103,-122.419089,37.774834,3,"Bus (transit, intercity, supplemental, or code-share) service is available","Rail (intercity, heavy, light, or commuter) service is available",No ferry (intercity or transit) service available
Spear at Folsom,San Francisco,94105,-122.390264,37.789625,2,"Bus (transit, intercity, supplemental, or code-share) service is available","No rail (intercity, heavy, light, or commuter) service available",No ferry (intercity or transit) service available
Stanford Ave at Hollis St,Emeryville,94608,-122.2886647,37.8384435,2,"Bus (transit, intercity, supplemental, or code-share) service is available","No rail (intercity, heavy, light, or commuter) service available",No ferry (intercity or transit) service available
Steuart Street at Market,San Francisco,94105,-122.394434,37.794139,2,"Bus (transit, intercity, supplemental, or code-share) service is available","No rail (intercity, heavy, light, or commuter) service available",No ferry (intercity or transit) service available
Telegraph Ave at 19th St,Oakland,94612,-122.2699271,37.8087021,1,"No bus (transit, intercity, supplemental, or code-share) service available","No rail (intercity, heavy, light, or commuter) service available",No ferry (intercity or transit) service available
Telegraph Ave at 23rd St,Oakland,94612,-122.2687726,37.8126783,2,"Bus (transit, intercity, supplemental, or code-share) service is available","No rail (intercity, heavy, light, or commuter) service available",No ferry (intercity or transit) service available
Telegraph Ave at 27th St,Oakland,94612,-122.2678864,37.81607312,2,"Bus (transit, intercity, supplemental, or code-share) service is available","No rail (intercity, heavy, light, or commuter) service available",No ferry (intercity or transit) service available
Telegraph Ave at 58th St,Oakland,94609,-122.261351,37.8444927,2,"Bus (transit, intercity, supplemental, or code-share) service is available","No rail (intercity, heavy, light, or commuter) service available",No ferry (intercity or transit) service available
Telegraph Ave at Alcatraz Ave,Oakland,94609,-122.2601724,37.85022187,2,"Bus (transit, intercity, supplemental, or code-share) service is available","No rail (intercity, heavy, light, or commuter) service available",No ferry (intercity or transit) service available
Telegraph Ave at Ashby Ave,Berkeley,94705,-122.2597949,37.8559558,2,"Bus (transit, intercity, supplemental, or code-share) service is available","No rail (intercity, heavy, light, or commuter) service available",No ferry (intercity or transit) service available
Telegraph Ave at Carleton St,Berkeley,94704,-122.258801,37.8623199,2,"Bus (transit, intercity, supplemental, or code-share) service is available","No rail (intercity, heavy, light, or commuter) service available",No ferry (intercity or transit) service available
The Embarcadero at Steuart St,San Francisco,94105,-122.391034,37.791464,1,"No bus (transit, intercity, supplemental, or code-share) service available","No rail (intercity, heavy, light, or commuter) service available",No ferry (intercity or transit) service available
Townsend St at 5th St,San Francisco,94107,-122.39738,37.7753058,1,"No bus (transit, intercity, supplemental, or code-share) service available","No rail (intercity, heavy, light, or commuter) service available",No ferry (intercity or transit) service available
Union St at 10th St,Oakland,94607,-122.2893702,37.8072393,2,"Bus (transit, intercity, supplemental, or code-share) service is available","No rail (intercity, heavy, light, or commuter) service available",No ferry (intercity or transit) service available
University Ave at Oxford St,Berkeley,94704,-122.2664467,37.8723555,2,"Bus (transit, intercity, supplemental, or code-share) service is available","No rail (intercity, heavy, light, or commuter) service available",No ferry (intercity or transit) service available
Valencia St at 16th St,San Francisco,94103,-122.4218661,37.765052,2,"Bus (transit, intercity, supplemental, or code-share) service is available","No rail (intercity, heavy, light, or commuter) service available",No ferry (intercity or transit) service available
Valencia St at 21st St,San Francisco,94110,-122.421025,37.7567083,1,"No bus (transit, intercity, supplemental, or code-share) service available","No rail (intercity, heavy, light, or commuter) service available",No ferry (intercity or transit) service available
Valencia St at 22nd St,San Francisco,94110,-122.4209752,37.7552126,1,"No bus (transit, intercity, supplemental, or code-share) service available","No rail (intercity, heavy, light, or commuter) service available",No ferry (intercity or transit) service available
Valencia St at 24th St,San Francisco,94110,-122.4206278,37.7524278,2,"Bus (transit, intercity, supplemental, or code-share) service is available","No rail (intercity, heavy, light, or commuter) service available",No ferry (intercity or transit) service available
Valencia St at Cesar Chavez St,San Francisco,94110,-122.4202187,37.7479981,2,"Bus (transit, intercity, supplemental, or code-share) service is available","No rail (intercity, heavy, light, or commuter) service available",No ferry (intercity or transit) service available
Valencia St at Clinton Park,San Francisco,94103,-122.4222851,37.76918818,1,"No bus (transit, intercity, supplemental, or code-share) service available","No rail (intercity, heavy, light, or commuter) service available",No ferry (intercity or transit) service available
Victoria Manalo Draves Park (Folsom St @ Columbia Square St),San Francisco,94103,-122.40645,37.777828,1,"No bus (transit, intercity, supplemental, or code-share) service available","No rail (intercity, heavy, light, or commuter) service available",No ferry (intercity or transit) service available
Vine St at Shattuck Ave,Berkeley,94709,-122.2695923,37.88022245,2,"Bus (transit, intercity, supplemental, or code-share) service is available","No rail (intercity, heavy, light, or commuter) service available",No ferry (intercity or transit) service available
Virginia St at Shattuck Ave,Berkeley,94709,-122.2695279,37.87657255,2,"Bus (transit, intercity, supplemental, or code-share) service is available","No rail (intercity, heavy, light, or commuter) service available",No ferry (intercity or transit) service available
Washington at Kearny,San Francisco,94111,-122.404767,37.795425,2,"Bus (transit, intercity, supplemental, or code-share) service is available","No rail (intercity, heavy, light, or commuter) service available",No ferry (intercity or transit) service available
Washington St at 8th St,Oakland,94607,-122.2748943,37.8007544,1,"No bus (transit, intercity, supplemental, or code-share) service available","No rail (intercity, heavy, light, or commuter) service available",No ferry (intercity or transit) service available
Webster St at 19th St,Oakland,94612,-122.2665882,37.80696976,1,"No bus (transit, intercity, supplemental, or code-share) service available","No rail (intercity, heavy, light, or commuter) service available",No ferry (intercity or transit) service available
Webster St at 2nd St,Oakland,94607,-122.2739697,37.79519476,2,"Bus (transit, intercity, supplemental, or code-share) service is available","No rail (intercity, heavy, light, or commuter) service available",No ferry (intercity or transit) service available
Webster St at Grove St,San Francisco,94102,-122.4295585,37.7770527,1,"No bus (transit, intercity, supplemental, or code-share) service available","No rail (intercity, heavy, light, or commuter) service available",No ferry (intercity or transit) service available
Webster St at O'Farrell St,San Francisco,94115,-122.4311578,37.78352084,2,"Bus (transit, intercity, supplemental, or code-share) service is available","No rail (intercity, heavy, light, or commuter) service available",No ferry (intercity or transit) service available
West Oakland BART Station,Oakland,94607,-122.2948365,37.8053183,3,"Bus (transit, intercity, supplemental, or code-share) service is available","Rail (intercity, heavy, light, or commuter) service is available",No ferry (intercity or transit) service available
West St at 40th St,Oakland,94609,-122.2709501,37.8302232,2,"Bus (transit, intercity, supplemental, or code-share) service is available","No rail (intercity, heavy, light, or commuter) service available",No ferry (intercity or transit) service available
West St at University Ave,Berkeley,94702,-122.2865331,37.86996671,2,"Bus (transit, intercity, supplemental, or code-share) service is available","No rail (intercity, heavy, light, or commuter) service available",No ferry (intercity or transit) service available
William St at 10th St,San Jose,95112,-121.8759263,37.3327938,1,"No bus (transit, intercity, supplemental, or code-share) service available","No rail (intercity, heavy, light, or commuter) service available",No ferry (intercity or transit) service available
Willow St at Vine St,San Jose,95110,-121.8831724,37.3184498,2,"Bus (transit, intercity, supplemental, or code-share) service is available","No rail (intercity, heavy, light, or commuter) service available",No ferry (intercity or transit) service available